IRIDIUM 171             
1 43929U 19002H   24218.70896669  .00000374  00000+0  12637-3 0  9992
2 43929  86.3954 278.1696 0002087  93.6659 266.4776 14.34217062291424
IRIDIUM 170             
1 43930U 19002J   24218.87638338  .00001650  00000+0  25771-3 0  9990
2 43930  86.6075 277.9110 0002282  92.3483 267.7995 14.72263768299161
IRIDIUM 167             
1 43931U 19002K   24218.91194679  .00000502  00000+0  17234-3 0  9991
2 43931  86.3945 277.8700 0002156  92.3942 267.7501 14.34215032291455
IRIDIUM 181             
1 56726U 23068S   24218.87637891  .00000833  00000+0  24017-3 0  9991
2 56726  86.8675 334.0374 0002200  90.5789 269.5664 14.43585046 64305
IRIDIUM 177             
1 56727U 23068T   24218.91238818  .00002939  00000+0  38322-3 0  9996
2 56727  86.1972 291.7534 0002186  90.5369 269.6102 14.80244101 65734
IRIDIUM 174             
1 56728U 23068U   24218.90696507  .00002926  00000+0  38154-3 0  9998
2 56728  86.1977 291.8636 0002318  87.7093 272.4393 14.80238547 65734
IRIDIUM 178             
1 56729U 23068V   24218.76631939  .00003390  00000+0  44236-3 0  9995
2 56729  86.5805 311.7480 0002613  86.3985 273.7535 14.80257106 65713
IRIDIUM 179             
1 56730U 23068W   24218.76089546  .00003492  00000+0  45587-3 0  9991
2 56730  86.6822 316.5096 0002353  93.9444 266.2047 14.80254026 65719
